ONEWEB-0589             
1 54655U 22166P   24212.93298622 -.00000004  00000+0 -40623-4 0  9998
2 54655  87.9290  20.5996 0002797  90.8789 269.2666 13.21824905 80885
ONEWEB-0590             
1 54656U 22166Q   24213.18372528  .00000122  00000+0  26491-3 0  9990
2 54656  87.9295  20.5582 0001792  96.3679 263.7659 13.21826314 81366
ONEWEB-0592             
1 54658U 22166S   24212.89669689  .00000072  00000+0  14260-3 0  9991
2 54658  87.9286  20.5734 0002096  94.6771 265.4602 13.21827503 81244
ONEWEB-0593             
1 54659U 22166T   24212.92034790 -.00000006  00000+0 -46497-4 0  9992
2 54659  87.9291  20.5957 0002080  92.6746 267.4626 13.21827551 80881
ONEWEB-0594             
1 54660U 22166U   24213.16636721  .00000082  00000+0  16623-3 0  9992
2 54660  87.9295  20.5482 0001776  87.8399 272.2938 13.21826969 81390
ONEWEB-0596             
1 54662U 22166W   24212.96608807  .00000079  00000+0  16092-3 0  9991
2 54662  87.9294  20.5801 0002145  98.3122 261.8255 13.21827408 81359
